DMSP 5D-3 F16 (USA 172) 
1 28054U 03048A   26030.52831796  .00000205  00000+0  13066-3 0  9991
2 28054  99.0020  53.3637 0007435 169.7214 344.3938 14.14446514150023
METEOSAT-9 (MSG-2)      
1 28912U 05049B   26029.21867402  .00000120  00000+0  00000+0 0  9990
2 28912   9.0461  55.5199 0001823 209.1466 348.1117  1.00276299  5602
DMSP 5D-3 F17 (USA 191) 
1 29522U 06050A   26030.49288227  .00000249  00000+0  15121-3 0  9991
2 29522  98.7401  39.8696 0011140  89.9104 270.3347 14.14945753992942
FENGYUN 3A              
1 32958U 08026A   26030.46181539  .00000144  00000+0  89024-4 0  9996
2 32958  98.6753 333.9773 0008996 158.2201 201.9359 14.19533746915864
GOES 14                 
1 35491U 09033A   26030.54098953  .00000112  00000+0  00000+0 0  9993
2 35491   1.3310  84.8430 0001452 256.8378 203.0130  1.00107995  5219
DMSP 5D-3 F18 (USA 210) 
1 35951U 09057A   26030.52372066  .00000352  00000+0  20582-3 0  9995
2 35951  98.8898  11.6977 0010090 284.4334  75.5719 14.14808855840127
EWS-G2 (GOES 15)        
1 36411U 10008A   26030.20302876  .00000032  00000+0  00000+0 0  9996
2 36411   0.9302  85.7762 0005290 195.2183 343.0282  1.00274529 58253
COMS 1                  
1 36744U 10032A   26030.37633256 -.00000352  00000+0  00000+0 0  9995
2 36744   4.4554  77.3738 0001158 239.0889  76.7942  1.00270218 49703
FENGYUN 3B              
1 37214U 10059A   26030.56309391  .00000707  00000+0  38922-3 0  9999
2 37214  98.9849  75.8672 0021555 214.7282 312.4082 14.14808872787965
SUOMI NPP               
1 37849U 11061A   26030.54032756  .00000116  00000+0  76084-4 0  9999
2 37849  98.7826 332.4563 0001984  36.4351 323.6960 14.19531829738913
METEOSAT-10 (MSG-3)     
1 38552U 12035B   26030.35085242 -.00000014  00000+0  00000+0 0  9998
2 38552   4.3445  61.6008 0002261 274.7315 279.5383  1.00270883 49476
METOP-B                 
1 38771U 12049A   26030.43385336  .00000192  00000+0  10767-3 0  9993
2 38771  98.6723  84.5504 0002779  44.7605 315.3796 14.21430893693692
INSAT-3D                
1 39216U 13038B   26030.37659256 -.00000345  00000+0  00000+0 0  9991
2 39216   1.5698  84.3882 0002059 194.1332 116.1575  1.00269776 45692
FENGYUN 3C              
1 39260U 13052A   26030.51125419  .00000156  00000+0  10040-3 0  9999
2 39260  98.4827  10.8249 0015694  61.8059 298.4699 14.15715178639081
METEOR-M 2              
1 40069U 14037A   26030.53085946  .00000206  00000+0  11350-3 0  9995
2 40069  98.4958  11.2613 0006928  77.9440 282.2514 14.21411578599768
HIMAWARI-8              
1 40267U 14060A   26030.37875922 -.00000280  00000+0  00000+0 0  9993
2 40267   0.0349 217.4432 0001251  77.7629 111.3970  1.00270567 41372
FENGYUN 2G              
1 40367U 14090A   26030.51326664 -.00000309  00000+0  00000+0 0  9999
2 40367   5.2888  74.5008 0001900 189.6869 149.8656  1.00265526 40611
METEOSAT-11 (MSG-4)     
1 40732U 15034A   26030.28151870  .00000058  00000+0  00000+0 0  9993
2 40732   2.8572  71.8282 0001032 235.3411 293.4264  1.00267247  5830
ELEKTRO-L 2             
1 41105U 15074A   26030.34799241 -.00000125  00000+0  00000+0 0  9995
2 41105   6.3454  72.2335 0003792 221.9348 306.1737  1.00271864 37126
INSAT-3DR               
1 41752U 16054A   26029.69608478 -.00000078  00000+0  00000+0 0  9996
2 41752   0.0345  93.7746 0014217 183.4874 176.2579  1.00270555 34435
HIMAWARI-9              
1 41836U 16064A   26030.30743218 -.00000279  00000+0  00000+0 0  9995
2 41836   0.0352 232.4156 0001040 112.9269  35.5964  1.00268890 33824
GOES 16                 
1 41866U 16071A   26030.47493699 -.00000095  00000+0  00000+0 0  9995
2 41866   0.1402  94.7335 0003215 191.7894 269.4419  1.00271044 33724
FENGYUN 4A              
1 41882U 16077A   26030.58936038 -.00000363  00000+0  00000+0 0  9998
2 41882   1.9718  81.8619 0006500 133.7602 249.8987  1.00279552 33551
CYGFM05                 
1 41884U 16078A   26030.53578994  .00037632  00000+0  64256-3 0  9994
2 41884  34.9592  87.8531 0008352 273.2721  86.7046 15.50230129507330
CYGFM04                 
1 41885U 16078B   26030.33838505  .00033076  00000+0  51183-3 0  9993
2 41885  34.9342  62.4484 0007105 296.2596  63.7397 15.53000496507496
CYGFM02                 
1 41886U 16078C   26030.41686299  .00035038  00000+0  50610-3 0  9998
2 41886  34.9430  59.5591 0008239 299.4073  60.5827 15.54865118507646
CYGFM01                 
1 41887U 16078D   26030.50877221  .00027013  00000+0  45584-3 0  9994
2 41887  34.9422  90.0229 0008253 264.8877  95.0903 15.50612817507279
CYGFM08                 
1 41888U 16078E   26030.39553090  .00031585  00000+0  50709-3 0  9991
2 41888  34.9453  73.1542 0009349 288.6626  71.3081 15.51967623507494
CYGFM07                 
1 41890U 16078G   26030.44287096  .00031999  00000+0  50227-3 0  9994
2 41890  34.9473  61.5366 0007367 304.2816  55.7209 15.52610371507526
CYGFM03                 
1 41891U 16078H   26030.41154506  .00031398  00000+0  49513-3 0  9990
2 41891  34.9423  63.6963 0007198 288.2578  71.7361 15.52486647507496
FENGYUN 3D              
1 43010U 17072A   26030.50846455  .00000095  00000+0  66593-4 0  9999
2 43010  98.9956   2.5669 0002528  82.5135 277.6327 14.19702589425455
NOAA 20 (JPSS-1)        
1 43013U 17073A   26030.48431242  .00000108  00000+0  72277-4 0  9995
2 43013  98.7650 331.2614 0000741  18.6512 341.4691 14.19525335424931
GOES 17                 
1 43226U 18022A   26030.50922500 -.00000187  00000+0  00000+0 0  9999
2 43226   0.5827  88.2622 0003084 204.8033 290.4720  1.00270484 29049
FENGYUN 2H              
1 43491U 18050A   26030.43786623 -.00000131  00000+0  00000+0 0  9999
2 43491   2.6743  80.7738 0002630 180.8866 104.5636  1.00266470 28052
METOP-C                 
1 43689U 18087A   26030.45995544  .00000194  00000+0  10877-3 0  9999
2 43689  98.6849  92.4646 0001325 155.7058 204.4182 14.21506918375260
GEO-KOMPSAT-2A          
1 43823U 18100A   26030.37633256 -.00000348  00000+0  00000+0 0  9990
2 43823   0.0148  98.9203 0000673 279.7576  14.6500  1.00270940 26248
METEOR-M2 2             
1 44387U 19038A   26030.56007084  .00000501  00000+0  23689-3 0  9994
2 44387  98.9025  15.9019 0002244  67.5962 292.5454 14.24318492341707
ARKTIKA-M 1             
1 47719U 21016A   26029.42409457 -.00000182  00000+0  00000+0 0  9992
2 47719  63.1907  77.4062 7227576 269.3208  15.3167  2.00632158 36007
FENGYUN 3E              
1 49008U 21062A   26030.50862324  .00000102  00000+0  68556-4 0  9999
2 49008  98.7496  35.4564 0002573 109.3527 250.7928 14.19888072237044
GOES 18                 
1 51850U 22021A   26030.44564477  .00000092  00000+0  00000+0 0  9997
2 51850   0.0138  99.0145 0000787 244.1443 169.9314  1.00271538  5213
NOAA 21 (JPSS-2)        
1 54234U 22150A   26030.44895142  .00000127  00000+0  81051-4 0  9994
2 54234  98.7513 331.1629 0001002 192.3386 167.7765 14.19541206167009
METEOSAT-12 (MTG-I1)    
1 54743U 22170C   26030.27952536 -.00000012  00000+0  00000+0 0  9997
2 54743   0.7030  23.8931 0002369 264.7334 301.2062  1.00268535 11590
TIANMU-1 03             
1 55973U 23039A   26030.49873635  .00021052  00000+0  48340-3 0  9993
2 55973  97.5126 199.5804 0002544 229.5580 130.5445 15.42726128159570
TIANMU-1 04             
1 55974U 23039B   26030.53191137  .00020569  00000+0  46645-3 0  9997
2 55974  97.5056 198.7869 0003289 225.1284 134.9697 15.43101846159588
TIANMU-1 05             
1 55975U 23039C   26030.47391131  .00020702  00000+0  47627-3 0  9997
2 55975  97.5103 199.2203 0002235 258.1935 101.9062 15.42673286159557
TIANMU-1 06             
1 55976U 23039D   26030.53256054  .00020253  00000+0  45875-3 0  9993
2 55976  97.5114 199.7870 0002613 250.6877 109.4088 15.43142705159589
FENGYUN 3G              
1 56232U 23055A   26027.33093889  .00044881  00000+0  67100-3 0  9994
2 56232  49.9947 352.2708 0004101  93.7831 266.3606 15.54500775158110
METEOR-M2 3             
1 57166U 23091A   26030.52435059  .00000042  00000+0  37287-4 0  9990
2 57166  98.6297  88.1941 0003611 195.4380 164.6689 14.24033337134929
TIANMU-1 07             
1 57399U 23101A   26030.49899961  .00010559  00000+0  37801-3 0  9997
2 57399  97.2810  84.2821 0002345 257.7906 102.3072 15.28944480140608
TIANMU-1 08             
1 57400U 23101B   26030.46804853  .00010731  00000+0  38531-3 0  9996
2 57400  97.2797  84.0375 0004110 262.1961  97.8813 15.28836511140594
TIANMU-1 09             
1 57401U 23101C   26030.51746691  .00010425  00000+0  37283-3 0  9991
2 57401  97.2754  83.5778 0003481 265.5922  94.4921 15.28979827140606
TIANMU-1 10             
1 57402U 23101D   26030.48644918  .00010930  00000+0  39076-3 0  9990
2 57402  97.2835  84.4491 0005196 266.5064  93.5582 15.28972541140599
FENGYUN 3F              
1 57490U 23111A   26030.49514958  .00000130  00000+0  81690-4 0  9990
2 57490  98.7008 102.9851 0001428 105.0847 255.0487 14.19909691129322
ARKTIKA-M 2             
1 58584U 23198A   26024.19964859  .00000217  00000+0  00000+0 0  9996
2 58584  63.2239 170.2658 6869981 267.9333  18.8453  2.00612775 15438
TIANMU-1 11             
1 58645U 23205A   26030.50154670  .00008136  00000+0  32506-3 0  9995
2 58645  97.3576  54.2830 0010661 124.7940 235.4303 15.25334704116529
TIANMU-1 12             
1 58646U 23205B   26030.53189752  .00009208  00000+0  36863-3 0  9999
2 58646  97.3564  54.1025 0009162 109.7481 250.4746 15.25241688116514
TIANMU-1 13             
1 58647U 23205C   26030.56401447  .00008352  00000+0  33418-3 0  9993
2 58647  97.3591  54.3561 0009535  94.7332 265.4995 15.25287937116513
TIANMU-1 14             
1 58648U 23205D   26030.54802376  .00008840  00000+0  35367-3 0  9995
2 58648  97.3526  53.6440 0010344  98.3409 261.9003 15.25266499116516
TIANMU-1 19             
1 58660U 23208A   26030.58586625  .00013312  00000+0  47503-3 0  9997
2 58660  97.4378 146.5627 0006315  86.4453 273.7509 15.28982089116284
TIANMU-1 20             
1 58661U 23208B   26030.46901513  .00013744  00000+0  47257-3 0  9997
2 58661  97.4315 146.9413 0008559  94.2147 266.0072 15.30170451116344
TIANMU-1 21             
1 58662U 23208C   26030.45170538  .00015658  00000+0  49859-3 0  9998
2 58662  97.4366 149.0560 0008446  90.5017 269.7193 15.32619606116456
TIANMU-1 22             
1 58663U 23208D   26030.46378066  .00012902  00000+0  46524-3 0  9991
2 58663  97.4372 146.4749 0004999 106.2763 253.9027 15.28653265116271
TIANMU-1 15             
1 58700U 24004A   26030.54547023  .00009063  00000+0  36311-3 0  9995
2 58700  97.4639 216.8559 0008321 109.8615 250.3520 15.25232174114780
TIANMU-1 16             
1 58701U 24004B   26030.52972500  .00009441  00000+0  37794-3 0  9992
2 58701  97.4580 216.1915 0006685 111.3678 248.8274 15.25261116114789
TIANMU-1 17             
1 58702U 24004C   26030.51299020  .00009494  00000+0  37963-3 0  9997
2 58702  97.4614 216.6097 0005884 111.9019 248.2844 15.25300472114774
TIANMU-1 18             
1 58703U 24004D   26030.49705528  .00008713  00000+0  34909-3 0  9990
2 58703  97.4631 216.7987 0005302 110.1102 250.0706 15.25264474114771
INSAT-3DS               
1 58990U 24033A   26030.08183762 -.00000158  00000+0  00000+0 0  9992
2 58990   0.0501 264.9658 0001982  61.7579 274.1045  1.00269714 45680
METEOR-M2 4             
1 59051U 24039A   26030.52332818  .00000057  00000+0  45376-4 0  9991
2 59051  98.6837 351.6851 0006554 200.3426 159.7492 14.22410835 99699
GOES 19                 
1 60133U 24119A   26030.50168742 -.00000254  00000+0  00000+0 0  9994
2 60133   0.0099 308.8047 0002157  45.1218 241.2189  1.00290297  5584
FENGYUN 3H              
1 65815U 25219A   26030.42124799  .00000132  00000+0  82690-4 0  9997
2 65815  98.6639 333.9688 0001546  92.9456 267.1898 14.19921661 17839
